CUTE-1 (CO-55)          
1 27844U 03031E   26199.29733931  .00000128  00000+0  74435-4 0  9993
2 27844  98.6744 207.4657 0010867  94.6885 265.5536 14.24352673196104
CUBESAT XI-IV (CO-57)   
1 27848U 03031J   26198.95002441  .00000107  00000+0  66203-4 0  9995
2 27848  98.6776 206.8106 0010632 112.1739 248.0569 14.23635431195756
CUBESAT XI-V            
1 28895U 05043F   26199.38529580  .00000626  00000+0  10630-3 0  9997
2 28895  98.3020 355.6693 0015320 105.9745 254.3151 14.72706792106345
CUTE-1.7+APD II (CO-65) 
1 32785U 08021C   26199.60124888  .00001873  00000+0  12037-3 0  9994
2 32785  97.8299 181.6832 0006835 285.4283  74.6190 15.09717241989936
CANX-2                  
1 32790U 08021H   26199.65473955  .00001226  00000+0  88992-4 0  9993
2 32790  97.8658 180.0522 0008630 304.1633  55.8774 15.05815442989547
SEEDS II (CO-66)        
1 32791U 08021J   26199.46116429  .00009670  00000+0  29894-3 0  9999
2 32791  97.7530 198.8780 0003459 149.6253 210.5190 15.33733639992086
SWISSCUBE               
1 35932U 09051B   26199.50323105  .00000430  00000+0  94449-4 0  9993
2 35932  98.4003 107.9339 0007978 110.2431 249.9628 14.62534100893739
BEESAT-1                
1 35933U 09051C   26199.46060355  .00000363  00000+0  82606-4 0  9991
2 35933  98.3930 107.4601 0006274 121.4564 238.7250 14.61764711893755
ITUPSAT1                
1 35935U 09051E   26199.47892063  .00000320  00000+0  76012-4 0  9990
2 35935  98.4014 106.6370 0008281 133.9775 226.2109 14.60481304893306
TISAT 1                 
1 36799U 10035E   26199.33203093  .00011260  00000+0  35795-3 0  9994
2 36799  98.0713 148.6745 0004683 113.7604 246.4128 15.32804931872473
STRAND-1                
1 39090U 13009E   26199.45524652  .00000108  00000+0  50687-4 0  9992
2 39090  98.3938  18.9224 0009562 132.2805 227.9194 14.37179953701553
BRITE-AUSTRIA           
1 39091U 13009F   26199.48169857  .00000062  00000+0  35786-4 0  9990
2 39091  98.4011  18.1453 0010939 141.4907 218.7063 14.36553265701541
NEE-01 PEGASO           
1 39151U 13018B   26199.34771828  .00001462  00000+0  14351-3 0  9998
2 39151  98.1262 344.5370 0013603  65.0738 295.1893 14.93797792715353
POPACS 2                
1 39269U 13055E   26199.16865769  .00014551 -92547-6  23705-3 0  9998
2 39269  80.9914 108.7152 0414657  94.3421 270.5279 14.92100608667839
POPACS 3                
1 39270U 13055F   26199.30837120  .00007544  00000+0  17940-3 0  9999
2 39270  81.0005 195.4250 0548375 335.1698  22.3977 14.56710923643089
ZACUBE-1 (TSHEPISOSAT)  
1 39417U 13066B   26199.33380740  .00001226  00000+0  98204-4 0  9992
2 39417  97.8004 161.8230 0044106 145.1896 215.2227 15.01336795685408
WNISAT-1                
1 39423U 13066H   26199.29823731  .00000547  00000+0  10737-3 0  9995
2 39423  97.7240 346.2522 0164041 133.5976 227.8974 14.58123799671266
TRITON-1                
1 39427U 13066M   26199.62925097  .00000497  00000+0  65325-4 0  9992
2 39427  97.8222 108.7176 0090840 131.0579 229.8529 14.81800281678746
GOMX-1                  
1 39430U 13066Q   26199.50756527  .00000644  00000+0  10371-3 0  9997
2 39430  97.6461  37.9934 0127945 337.5445  22.0191 14.69547063674511
CUBEBUG-2 (LO-74)       
1 39440U 13066AA  26199.34309812  .00001985  00000+0  18660-3 0  9999
2 39440  97.8919 148.4608 0055582 284.7062  74.8001 14.93979922681640
NEE-02 KRYSAOR          
1 39441U 13066AB  26199.30383179  .00001039  00000+0  11889-3 0  9990
2 39441  97.8897 138.3004 0065149 329.0008  30.7369 14.86746311680820
FUNCUBE-1 (AO-73)       
1 39444U 13066AE  26199.60636152  .00004251  00000+0  26257-3 0  9992
2 39444  97.8296 171.7194 0037996  96.6399 263.9156 15.09845015684405
UWE-3                   
1 39446U 13066AG  26198.82646848  .00002032  00000+0  17707-3 0  9995
2 39446  97.8719 155.1139 0047603 215.4548 144.3506 14.97209607682164
BRITE-CA1 (TORONTO)     
1 40020U 14033L   26199.63165279  .00000485  00000+0  80468-4 0  9999
2 40020  97.9776 327.9867 0078735 175.2635 184.9336 14.72726309646847
DUCHIFAT-1              
1 40021U 14033M   26199.16331792  .00093801  00000+0  72542-3 0  9990
2 40021  98.0423 262.8485 0003259 233.3410 126.7552 15.71597676660605
NANOSATC-BR1            
1 40024U 14033Q   26199.03540875  .00009821  00000+0  31675-3 0  9994
2 40024  98.0705 234.1779 0005196  89.7852 270.3983 15.32384103658702
QB50P1                  
1 40025U 14033R   26199.31896595  .00004488  00000+0  21986-3 0  9997
2 40025  98.0968 212.6585 0010487 115.5699 244.6619 15.18693321657759
QB50P2                  
1 40032U 14033Y   26198.93725984  .00004058  00000+0  21790-3 0  9991
2 40032  98.0766 197.7424 0009243  76.1701 284.0558 15.15528215657321
PERSEUS-M2              
1 40037U 14033AD  26199.64276747 -.00000164  00000+0 -92169-5 0  9999
2 40037  97.9988 150.8292 0011123 187.8219 172.2829 14.95591378655488
PERSEUS-M1              
1 40039U 14033AF  26199.27869363  .00000677  00000+0  66212-4 0  9998
2 40039  97.9655 143.9248 0011117 186.0702 174.0385 14.95721819655286
